OBJECT_NAME,OBJECT_ID,EPOCH,MEAN_MOTION,ECCENTRICITY,INCLINATION,RA_OF_ASC_NODE,ARG_OF_PERICENTER,MEAN_ANOMALY,EPHEMERIS_TYPE,CLASSIFICATION_TYPE,NORAD_CAT_ID,ELEMENT_SET_NO,REV_AT_EPOCH,BSTAR,MEAN_MOTION_DOT,MEAN_MOTION_DDOT
LAOSAT 1,2015-067A,2026-06-25T06:22:01.176096,1.00272223,.00026754,0.0501,221.4723,187.2272,88.7200,0,U,41034,999,3894,0,-.333E-5,0
TELSTAR 12V,2015-068A,2026-06-24T10:51:47.740896,1.00273298,.00023878,0.0126,300.3375,154.0367,326.1827,0,U,41036,999,3869,0,-.111E-5,0
ELEKTRO-L 2,2015-074A,2026-06-23T22:53:22.057728,1.00271133,.00007659,6.7110,70.4435,277.7123,252.7626,0,U,41105,999,3857,0,-.116E-5,0
COSMOS 2513,2015-075A,2026-06-25T04:25:35.103648,1.00271964,.00033711,0.0743,102.4321,333.1180,344.4285,0,U,41121,999,3862,0,-.129E-5,0
EXPRESS-AMU1,2015-082A,2026-06-25T05:14:38.786208,1.00271273,.00029259,0.0182,25.3903,68.8148,293.8914,0,U,41191,999,3834,0,.165E-5,0
GAOFEN-4,2015-083A,2026-06-24T13:08:56.192640,1.00271781,.00041005,0.3772,83.8708,115.1285,16.6415,0,U,41194,999,3860,0,-.327E-5,0
BELINTERSAT-1,2016-001A,2026-06-25T05:59:59.828928,1.00270038,.00018985,0.0065,285.8904,135.3867,353.6171,0,U,41238,999,3831,0,.117E-5,0
IRNSS-1E,2016-003A,2026-06-24T14:51:21.828096,1.00274996,.00190255,33.2496,59.6425,179.2387,8.5415,0,U,41241,999,3815,0,-.319E-5,0
EUTELSAT 9B,2016-005A,2026-06-24T12:40:57.006048,1.00277072,.00014858,0.0409,60.5498,16.9663,34.4295,0,U,41310,999,3819,0,.71E-6,0
SES-9,2016-013A,2026-06-24T09:44:19.702176,1.00271753,.0002441,0.0118,330.6401,115.0310,81.2676,0,U,41380,999,3751,0,-.337E-5,0
EUTELSAT 65 WEST A,2016-014A,2026-06-25T03:49:38.564832,1.00272219,.00026952,0.0468,351.0002,99.7969,174.7219,0,U,41382,999,3760,0,-.267E-5,0
IRNSS-1F,2016-015A,2026-06-24T23:03:58.279680,1.00271475,.00174497,5.3679,96.6056,184.5508,10.3459,0,U,41384,999,3774,0,.163E-5,0
BEIDOU-2 IGSO-6,2016-021A,2026-06-24T02:12:21.652992,1.00259092,.00575384,60.2358,37.9691,231.1257,128.7042,0,U,41434,999,3755,0,-.155E-5,0
IRNSS-1G,2016-027A,2026-06-24T20:00:55.702656,1.00276825,.0006263,5.2145,97.3003,2.7788,242.3958,0,U,41469,999,3725,0,-.329E-5,0
JCSAT-2B,2016-028A,2026-06-23T23:59:38.544288,1.00271214,.00011058,0.0193,11.2610,81.5887,333.2159,0,U,41471,999,3719,0,-.159E-5,0
THAICOM 8,2016-031A,2026-06-25T04:25:05.152224,1.00272265,.00038225,0.0690,45.9058,18.7627,353.4149,0,U,41552,999,3679,0,-.112E-5,0
INTELSAT 31 (IS-31),2016-035A,2026-06-25T03:35:31.913088,1.00270780,.00006788,0.0127,292.2323,327.6488,332.2376,0,U,41581,999,3676,0,-.141E-5,0
BEIDOU-2 G7,2016-037A,2026-06-25T07:59:32.508960,1.00273076,.00068228,1.7407,69.4043,0.3351,74.1665,0,U,41586,999,697,0,-.345E-5,0
ABS-2A (MONGOLSAT-1),2016-038A,2026-06-24T07:52:07.661280,1.00269599,.00023011,0.0209,2.0142,26.2948,76.9601,0,U,41588,999,3678,0,0,0
EUTELSAT 117 WEST B,2016-038B,2026-06-23T22:24:09.481248,1.00270429,.0000063,0.0091,158.0636,73.8469,259.2281,0,U,41589,999,3673,0,-.5E-7,0
BRISAT,2016-039A,2026-06-24T05:18:38.616192,1.00267771,.00021499,0.0209,343.6559,100.3988,58.4713,0,U,41591,999,3668,0,0,0
ECHOSTAR 18,2016-039B,2026-06-24T14:03:49.840128,1.00261663,.00019634,0.0031,82.7881,353.6363,345.8903,0,U,41592,999,3669,0,-.273E-5,0
MUOS-5,2016-041A,2026-06-25T03:32:54.665088,1.00272999,.01979203,2.1858,301.8199,260.6421,18.8596,0,U,41622,999,3716,0,-.139E-5,0
TIANTONG-1 1,2016-048A,2026-06-25T02:48:55.295424,1.00271889,.0005872,3.8646,43.4890,47.6013,325.8276,0,U,41725,999,3635,0,-.311E-5,0
JCSAT-16,2016-050A,2026-06-23T21:55:50.450304,1.00271683,.00011778,0.0185,4.4807,97.4298,283.0721,0,U,41729,999,3613,0,-.244E-5,0
USA 270,2016-052A,2026-06-22T15:12:26.817408,0.99500873,.0000555,4.2102,77.1345,163.5272,57.8891,0,U,41744,999,2818,0,-.244E-5,0
USA 271,2016-052B,2026-06-23T01:13:22.841184,0.99834520,.0002049,4.1840,77.1777,291.6696,27.7147,0,U,41745,999,2797,0,-.272E-5,0
INTELSAT 36 (IS-36),2016-053A,2026-06-25T04:22:12.926784,1.00272521,.00020421,0.0128,20.9268,321.7510,64.7168,0,U,41747,999,3603,0,-.15E-6,0
INSAT-3DR,2016-054A,2026-06-25T01:36:38.653056,1.00272293,.00101237,0.1261,86.2815,187.2212,97.8369,0,U,41752,999,3589,0,-.68E-6,0
GSAT-18,2016-060A,2026-06-25T01:36:38.653056,1.00272074,.00057884,0.0780,94.2095,342.8302,294.3037,0,U,41793,999,3560,0,-.67E-6,0
SKY MUSTER 2 (NBN1B),2016-060B,2026-06-24T13:21:01.738368,1.00271432,.00017014,0.0189,336.3996,114.0536,167.3180,0,U,41794,999,3559,0,-.236E-5,0
HIMAWARI-9,2016-064A,2026-06-25T06:25:30.841248,1.00269310,.00012088,0.0229,28.7375,85.3690,36.4471,0,U,41836,999,3529,0,0,0
