[{"id":"41034","name":"LAOSAT 1","tle1":"1 41034U 15067A   26176.26529139 -.00000333  00000+0  00000+0 0  9998","tle2":"2 41034   0.0501 221.4723 0002675 187.2272  88.7200  1.00272223 38948"},{"id":"41036","name":"TELSTAR 12V","tle1":"1 41036U 15068A   26175.45263589 -.00000111  00000+0  00000+0 0  9999","tle2":"2 41036   0.0126 300.3375 0002387 154.0367 326.1827  1.00273298 38699"},{"id":"41105","name":"ELEKTRO-L 2","tle1":"1 41105U 15074A   26174.95372752 -.00000116  00000+0  00000+0 0  9995","tle2":"2 41105   6.7110  70.4435 0000765 277.7123 252.7626  1.00271133 38579"},{"id":"41121","name":"COSMOS 2513","tle1":"1 41121U 15075A   26176.18443407 -.00000129  00000+0  00000+0 0  9991","tle2":"2 41121   0.0743 102.4321 0003371 333.1180 344.4285  1.00271964 38620"},{"id":"41191","name":"EXPRESS-AMU1","tle1":"1 41191U 15082A   26176.21850447  .00000165  00000+0  00000+0 0  9995","tle2":"2 41191   0.0182  25.3903 0002925  68.8148 293.8914  1.00271273 38341"},{"id":"41194","name":"GAOFEN-4","tle1":"1 41194U 15083A   26175.54787260 -.00000327  00000+0  00000+0 0  9997","tle2":"2 41194   0.3772  83.8708 0004100 115.1285  16.6415  1.00271781 38609"},{"id":"41238","name":"BELINTERSAT-1","tle1":"1 41238U 16001A   26176.24999802  .00000117  00000+0  00000+0 0  9998","tle2":"2 41238   0.0065 285.8904 0001898 135.3867 353.6171  1.00270038 38318"},{"id":"41241","name":"IRNSS-1E","tle1":"1 41241U 16003A   26175.61900264 -.00000319  00000+0  00000+0 0  9993","tle2":"2 41241  33.2496  59.6425 0019025 179.2387   8.5415  1.00274996 38154"},{"id":"41310","name":"EUTELSAT 9B","tle1":"1 41310U 16005A   26175.52843757  .00000071  00000+0  00000+0 0  9999","tle2":"2 41310   0.0409  60.5498 0001485  16.9663  34.4295  1.00277072 38199"},{"id":"41380","name":"SES-9","tle1":"1 41380U 16013A   26175.40578359 -.00000337  00000+0  00000+0 0  9991","tle2":"2 41380   0.0118 330.6401 0002441 115.0310  81.2676  1.00271753 37519"},{"id":"41382","name":"EUTELSAT 65 WEST A","tle1":"1 41382U 16014A   26176.15947413 -.00000267  00000+0  00000+0 0  9990","tle2":"2 41382   0.0468 351.0002 0002695  99.7969 174.7219  1.00272219 37601"},{"id":"41384","name":"IRNSS-1F","tle1":"1 41384U 16015A   26175.96109120  .00000163  00000+0  00000+0 0  9990","tle2":"2 41384   5.3679  96.6056 0017449 184.5508  10.3459  1.00271475 37740"},{"id":"41434","name":"BEIDOU-2 IGSO-6","tle1":"1 41434U 16021A   26175.09191728 -.00000155  00000+0  00000+0 0  9994","tle2":"2 41434  60.2358  37.9691 0057538 231.1257 128.7042  1.00259092 37558"},{"id":"41469","name":"IRNSS-1G","tle1":"1 41469U 16027A   26175.83397804 -.00000329  00000+0  00000+0 0  9996","tle2":"2 41469   5.2145  97.3003 0006263   2.7788 242.3958  1.00276825 37255"},{"id":"41471","name":"JCSAT-2B","tle1":"1 41471U 16028A   26174.99975167 -.00000159  00000+0  00000+0 0  9991","tle2":"2 41471   0.0193  11.2610 0001105  81.5887 333.2159  1.00271214 37191"},{"id":"41552","name":"THAICOM 8","tle1":"1 41552U 16031A   26176.18408741 -.00000112  00000+0  00000+0 0  9996","tle2":"2 41552   0.0690  45.9058 0003822  18.7627 353.4149  1.00272265 36790"},{"id":"41581","name":"INTELSAT 31 (IS-31)","tle1":"1 41581U 16035A   26176.14967492 -.00000141  00000+0  00000+0 0  9993","tle2":"2 41581   0.0127 292.2323 0000678 327.6488 332.2376  1.00270780 36766"},{"id":"41586","name":"BEIDOU-2 G7","tle1":"1 41586U 16037A   26176.33301515 -.00000345  00000+0  00000+0 0  9995","tle2":"2 41586   1.7407  69.4043 0006822   0.3351  74.1665  1.00273076  6978"},{"id":"41588","name":"ABS-2A (MONGOLSAT-1)","tle1":"1 41588U 16038A   26175.32786645  .00000000  00000+0  00000+0 0  9994","tle2":"2 41588   0.0209   2.0142 0002301  26.2948  76.9601  1.00269599 36789"},{"id":"41589","name":"EUTELSAT 117 WEST B","tle1":"1 41589U 16038B   26174.93344307 -.00000005  00000+0  00000+0 0  9992","tle2":"2 41589   0.0091 158.0636 0000063  73.8469 259.2281  1.00270429 36737"},{"id":"41591","name":"BRISAT","tle1":"1 41591U 16039A   26175.22128028  .00000000  00000+0  00000+0 0  9993","tle2":"2 41591   0.0209 343.6559 0002149 100.3988  58.4713  1.00267771 36685"},{"id":"41592","name":"ECHOSTAR 18","tle1":"1 41592U 16039B   26175.58599352 -.00000273  00000+0  00000+0 0  9998","tle2":"2 41592   0.0031  82.7881 0001963 353.6363 345.8903  1.00261663 36690"},{"id":"41622","name":"MUOS-5","tle1":"1 41622U 16041A   26176.14785492 -.00000139  00000+0  00000+0 0  9991","tle2":"2 41622   2.1858 301.8199 0197920 260.6421  18.8596  1.00272999 37164"},{"id":"41725","name":"TIANTONG-1 1","tle1":"1 41725U 16048A   26176.11730666 -.00000311  00000+0  00000+0 0  9994","tle2":"2 41725   3.8646  43.4890 0005872  47.6013 325.8276  1.00271889 36355"},{"id":"41729","name":"JCSAT-16","tle1":"1 41729U 16050A   26174.91377836 -.00000244  00000+0  00000+0 0  9998","tle2":"2 41729   0.0185   4.4807 0001177  97.4298 283.0721  1.00271683 36131"},{"id":"41744","name":"USA 270","tle1":"1 41744U 16052A   26173.63364372 -.00000244  00000+0  00000+0 0  9996","tle2":"2 41744   4.2102  77.1345 0000555 163.5272  57.8891  0.99500873 28187"},{"id":"41745","name":"USA 271","tle1":"1 41745U 16052B   26174.05095881 -.00000272  00000+0  00000+0 0  9991","tle2":"2 41745   4.1840  77.1777 0002049 291.6696  27.7147  0.99834520 27973"},{"id":"41747","name":"INTELSAT 36 (IS-36)","tle1":"1 41747U 16053A   26176.18209406 -.00000015  00000+0  00000+0 0  9995","tle2":"2 41747   0.0128  20.9268 0002042 321.7510  64.7168  1.00272521 36034"},{"id":"41752","name":"INSAT-3DR","tle1":"1 41752U 16054A   26176.06711404 -.00000068  00000+0  00000+0 0  9993","tle2":"2 41752   0.1261  86.2815 0010123 187.2212  97.8369  1.00272293 35894"},{"id":"41793","name":"GSAT-18","tle1":"1 41793U 16060A   26176.06711404 -.00000067  00000+0  00000+0 0  9994","tle2":"2 41793   0.0780  94.2095 0005788 342.8302 294.3037  1.00272074 35605"},{"id":"41794","name":"SKY MUSTER 2 (NBN1B)","tle1":"1 41794U 16060B   26175.55627012 -.00000236  00000+0  00000+0 0  9997","tle2":"2 41794   0.0189 336.3996 0001701 114.0536 167.3180  1.00271432 35591"},{"id":"41836","name":"HIMAWARI-9","tle1":"1 41836U 16064A   26176.26771807  .00000000  00000+0  00000+0 0  9997","tle2":"2 41836   0.0229  28.7375 0001208  85.3690  36.4471  1.00269310 35297"}]